[{"OBJECT_NAME":"STARLINK-30431","OBJECT_ID":"2023-141N","EPOCH":"2026-03-09T19:50:30.555456","MEAN_MOTION":15.30189985,"ECCENTRICITY":9.658e-5,"INCLINATION":53.1592,"RA_OF_ASC_NODE":283.1577,"ARG_OF_PERICENTER":110.9615,"MEAN_ANOMALY":249.1489,"EPHEMERIS_TYPE":0,"CLASSIFICATION_TYPE":"U","NORAD_CAT_ID":57852,"ELEMENT_SET_NO":999,"REV_AT_EPOCH":14034,"BSTAR":1.9283306e-5,"MEAN_MOTION_DOT":2.12e-6,"MEAN_MOTION_DDOT":0},{"OBJECT_NAME":"KUIPER-00175","OBJECT_ID":"2025-301C","EPOCH":"2026-03-09T23:30:37.840032","MEAN_MOTION":15.30996371,"ECCENTRICITY":0.00022792,"INCLINATION":51.8781,"RA_OF_ASC_NODE":63.6978,"ARG_OF_PERICENTER":50.5695,"MEAN_ANOMALY":309.549,"EPHEMERIS_TYPE":0,"CLASSIFICATION_TYPE":"U","NORAD_CAT_ID":67135,"ELEMENT_SET_NO":999,"REV_AT_EPOCH":1385,"BSTAR":0.00066732304,"MEAN_MOTION_DOT":0.00019968,"MEAN_MOTION_DDOT":0}]
